49305,ONEWEB-0379,2021,109.55,148.0,+,87.9,Active,1,LEO,Russia,UK,Commercial,Communications,Soyuz,1 49305U 21090AC  24266.49907891  .00000168  00000+0  41797-3 0  9995,2 49305  87.8961  55.5205 0001611  97.2932 262.8381 13.14501875144447,13.14501875,0.0001611,LEO
49306,ONEWEB-0380,2021,109.11,148.0,+,87.91,Active,1,LEO,Russia,UK,Commercial,Communications,Soyuz,1 49306U 21090AD  24266.49400028  .00000094  00000+0  20356-3 0  9992,2 49306  87.9106  70.8132 0001749  91.1557 268.9776 13.19724148142973,13.19724148,0.0001749,LEO
49307,ONEWEB-0381,2021,109.03,148.0,+,87.92,Active,1,LEO,Russia,UK,Commercial,Communications,Soyuz,1 49307U 21090AE  24266.43762554  .00000000  00000+0 -32025-4 0  9997,2 49307  87.9249  40.2951 0001887  92.5189 267.6160 13.20770959146308,13.20770959,0.0001887,LEO
49308,ONEWEB-0382,2021,109.03,148.0,+,87.92,Active,1,LEO,Russia,UK,Commercial,Communications,Soyuz,1 49308U 21090AF  24266.42500253  .00000083  00000+0  17242-3 0  9996,2 49308  87.9246  40.2940 0001377  96.1720 263.9570 13.20770317146299,13.20770317,0.0001377,LEO
49309,ONEWEB-0383,2021,109.55,148.0,+,87.9,Active,1,LEO,Russia,UK,Commercial,Communications,Soyuz,1 49309U 21090AG  24266.41659805  .00000193  00000+0  48614-3 0  9993,2 49309  87.8961  55.5232 0001453  98.0577 262.0718 13.14503112144463,13.14503112,0.0001453,LEO
49310,ONEWEB-0384,2021,109.03,148.0,+,87.93,Active,1,LEO,Russia,UK,Commercial,Communications,Soyuz,1 49310U 21090AH  24266.42178418  .00001652  00000+0  40301-2 0  9997,2 49310  87.9274  40.3071 0001316  84.8779 275.2504 13.20788736146309,13.20788736,0.0001316,LEO
49311,ONEWEB-0385,2021,109.03,148.0,+,87.92,Active,1,LEO,Russia,UK,Commercial,Communications,Soyuz,1 49311U 21090AJ  24266.64436333  .00000639  00000+0  15402-2 0  9993,2 49311  87.9276  40.2653 0001534  93.1271 267.0038 13.20768635146306,13.20768635,0.0001534,LEO
49312,ONEWEB-0386,2021,109.03,148.0,+,87.92,Active,1,LEO,Russia,UK,Commercial,Communications,Soyuz,1 49312U 21090AK  24266.43446203  .00000062  00000+0  12042-3 0  9996,2 49312  87.9245  40.2944 0001474  92.5169 267.6133 13.20772355146292,13.20772355,0.0001474,LEO
