<?xml version="1.0" encoding="UTF-8"?>
<ndm xmlns:xsi="http://www.w3.org/2001/XMLSchema-instance" xsi:noNamespaceSchemaLocation="https://sanaregistry.org/r/ndmxml_unqualified/ndmxml-2.0.0-master-2.0.xsd">
<omm id="CCSDS_OMM_VERS" version="2.0">
<header><CREATION_DATE/><ORIGINATOR/></header><body><segment><metadata><OBJECT_NAME>ONEWEB-0379</OBJECT_NAME><OBJECT_ID>2021-090AC</OBJECT_ID><CENTER_NAME>EARTH</CENTER_NAME><REF_FRAME>TEME</REF_FRAME><TIME_SYSTEM>UTC</TIME_SYSTEM><MEAN_ELEMENT_THEORY>SGP4</MEAN_ELEMENT_THEORY></metadata><data><meanElements><EPOCH>2024-09-22T11:58:40.417824</EPOCH><MEAN_MOTION>13.14501875</MEAN_MOTION><ECCENTRICITY>.0001611</ECCENTRICITY><INCLINATION>87.8961</INCLINATION><RA_OF_ASC_NODE>55.5205</RA_OF_ASC_NODE><ARG_OF_PERICENTER>97.2932</ARG_OF_PERICENTER><MEAN_ANOMALY>262.8381</MEAN_ANOMALY></meanElements><tleParameters><EPHEMERIS_TYPE>0</EPHEMERIS_TYPE><CLASSIFICATION_TYPE>U</CLASSIFICATION_TYPE><NORAD_CAT_ID>49305</NORAD_CAT_ID><ELEMENT_SET_NO>999</ELEMENT_SET_NO><REV_AT_EPOCH>14444</REV_AT_EPOCH><BSTAR>.41797E-3</BSTAR><MEAN_MOTION_DOT>.168E-5</MEAN_MOTION_DOT><MEAN_MOTION_DDOT>0</MEAN_MOTION_DDOT></tleParameters></data></segment></body></omm>
<omm id="CCSDS_OMM_VERS" version="2.0">
<header><CREATION_DATE/><ORIGINATOR/></header><body><segment><metadata><OBJECT_NAME>ONEWEB-0380</OBJECT_NAME><OBJECT_ID>2021-090AD</OBJECT_ID><CENTER_NAME>EARTH</CENTER_NAME><REF_FRAME>TEME</REF_FRAME><TIME_SYSTEM>UTC</TIME_SYSTEM><MEAN_ELEMENT_THEORY>SGP4</MEAN_ELEMENT_THEORY></metadata><data><meanElements><EPOCH>2024-09-22T11:51:21.624192</EPOCH><MEAN_MOTION>13.19724148</MEAN_MOTION><ECCENTRICITY>.0001749</ECCENTRICITY><INCLINATION>87.9106</INCLINATION><RA_OF_ASC_NODE>70.8132</RA_OF_ASC_NODE><ARG_OF_PERICENTER>91.1557</ARG_OF_PERICENTER><MEAN_ANOMALY>268.9776</MEAN_ANOMALY></meanElements><tleParameters><EPHEMERIS_TYPE>0</EPHEMERIS_TYPE><CLASSIFICATION_TYPE>U</CLASSIFICATION_TYPE><NORAD_CAT_ID>49306</NORAD_CAT_ID><ELEMENT_SET_NO>999</ELEMENT_SET_NO><REV_AT_EPOCH>14297</REV_AT_EPOCH><BSTAR>.20356E-3</BSTAR><MEAN_MOTION_DOT>.94E-6</MEAN_MOTION_DOT><MEAN_MOTION_DDOT>0</MEAN_MOTION_DDOT></tleParameters></data></segment></body></omm>
<omm id="CCSDS_OMM_VERS" version="2.0">
<header><CREATION_DATE/><ORIGINATOR/></header><body><segment><metadata><OBJECT_NAME>ONEWEB-0381</OBJECT_NAME><OBJECT_ID>2021-090AE</OBJECT_ID><CENTER_NAME>EARTH</CENTER_NAME><REF_FRAME>TEME</REF_FRAME><TIME_SYSTEM>UTC</TIME_SYSTEM><MEAN_ELEMENT_THEORY>SGP4</MEAN_ELEMENT_THEORY></metadata><data><meanElements><EPOCH>2024-09-22T10:30:10.846656</EPOCH><MEAN_MOTION>13.20770959</MEAN_MOTION><ECCENTRICITY>.0001887</ECCENTRICITY><INCLINATION>87.9249</INCLINATION><RA_OF_ASC_NODE>40.2951</RA_OF_ASC_NODE><ARG_OF_PERICENTER>92.5189</ARG_OF_PERICENTER><MEAN_ANOMALY>267.6160</MEAN_ANOMALY></meanElements><tleParameters><EPHEMERIS_TYPE>0</EPHEMERIS_TYPE><CLASSIFICATION_TYPE>U</CLASSIFICATION_TYPE><NORAD_CAT_ID>49307</NORAD_CAT_ID><ELEMENT_SET_NO>999</ELEMENT_SET_NO><REV_AT_EPOCH>14630</REV_AT_EPOCH><BSTAR>-.32025E-4</BSTAR><MEAN_MOTION_DOT>0</MEAN_MOTION_DOT><MEAN_MOTION_DDOT>0</MEAN_MOTION_DDOT></tleParameters></data></segment></body></omm>
<omm id="CCSDS_OMM_VERS" version="2.0">
<header><CREATION_DATE/><ORIGINATOR/></header><body><segment><metadata><OBJECT_NAME>ONEWEB-0382</OBJECT_NAME><OBJECT_ID>2021-090AF</OBJECT_ID><CENTER_NAME>EARTH</CENTER_NAME><REF_FRAME>TEME</REF_FRAME><TIME_SYSTEM>UTC</TIME_SYSTEM><MEAN_ELEMENT_THEORY>SGP4</MEAN_ELEMENT_THEORY></metadata><data><meanElements><EPOCH>2024-09-22T10:12:00.218592</EPOCH><MEAN_MOTION>13.20770317</MEAN_MOTION><ECCENTRICITY>.0001377</ECCENTRICITY><INCLINATION>87.9246</INCLINATION><RA_OF_ASC_NODE>40.2940</RA_OF_ASC_NODE><ARG_OF_PERICENTER>96.1720</ARG_OF_PERICENTER><MEAN_ANOMALY>263.9570</MEAN_ANOMALY></meanElements><tleParameters><EPHEMERIS_TYPE>0</EPHEMERIS_TYPE><CLASSIFICATION_TYPE>U</CLASSIFICATION_TYPE><NORAD_CAT_ID>49308</NORAD_CAT_ID><ELEMENT_SET_NO>999</ELEMENT_SET_NO><REV_AT_EPOCH>14629</REV_AT_EPOCH><BSTAR>.17242E-3</BSTAR><MEAN_MOTION_DOT>.83E-6</MEAN_MOTION_DOT><MEAN_MOTION_DDOT>0</MEAN_MOTION_DDOT></tleParameters></data></segment></body></omm>
<omm id="CCSDS_OMM_VERS" version="2.0">
<header><CREATION_DATE/><ORIGINATOR/></header><body><segment><metadata><OBJECT_NAME>ONEWEB-0383</OBJECT_NAME><OBJECT_ID>2021-090AG</OBJECT_ID><CENTER_NAME>EARTH</CENTER_NAME><REF_FRAME>TEME</REF_FRAME><TIME_SYSTEM>UTC</TIME_SYSTEM><MEAN_ELEMENT_THEORY>SGP4</MEAN_ELEMENT_THEORY></metadata><data><meanElements><EPOCH>2024-09-22T09:59:54.071520</EPOCH><MEAN_MOTION>13.14503112</MEAN_MOTION><ECCENTRICITY>.0001453</ECCENTRICITY><INCLINATION>87.8961</INCLINATION><RA_OF_ASC_NODE>55.5232</RA_OF_ASC_NODE><ARG_OF_PERICENTER>98.0577</ARG_OF_PERICENTER><MEAN_ANOMALY>262.0718</MEAN_ANOMALY></meanElements><tleParameters><EPHEMERIS_TYPE>0</EPHEMERIS_TYPE><CLASSIFICATION_TYPE>U</CLASSIFICATION_TYPE><NORAD_CAT_ID>49309</NORAD_CAT_ID><ELEMENT_SET_NO>999</ELEMENT_SET_NO><REV_AT_EPOCH>14446</REV_AT_EPOCH><BSTAR>.48614E-3</BSTAR><MEAN_MOTION_DOT>.193E-5</MEAN_MOTION_DOT><MEAN_MOTION_DDOT>0</MEAN_MOTION_DDOT></tleParameters></data></segment></body></omm>
<omm id="CCSDS_OMM_VERS" version="2.0">
<header><CREATION_DATE/><ORIGINATOR/></header><body><segment><metadata><OBJECT_NAME>ONEWEB-0384</OBJECT_NAME><OBJECT_ID>2021-090AH</OBJECT_ID><CENTER_NAME>EARTH</CENTER_NAME><REF_FRAME>TEME</REF_FRAME><TIME_SYSTEM>UTC</TIME_SYSTEM><MEAN_ELEMENT_THEORY>SGP4</MEAN_ELEMENT_THEORY></metadata><data><meanElements><EPOCH>2024-09-22T10:07:22.153152</EPOCH><MEAN_MOTION>13.20788736</MEAN_MOTION><ECCENTRICITY>.0001316</ECCENTRICITY><INCLINATION>87.9274</INCLINATION><RA_OF_ASC_NODE>40.3071</RA_OF_ASC_NODE><ARG_OF_PERICENTER>84.8779</ARG_OF_PERICENTER><MEAN_ANOMALY>275.2504</MEAN_ANOMALY></meanElements><tleParameters><EPHEMERIS_TYPE>0</EPHEMERIS_TYPE><CLASSIFICATION_TYPE>U</CLASSIFICATION_TYPE><NORAD_CAT_ID>49310</NORAD_CAT_ID><ELEMENT_SET_NO>999</ELEMENT_SET_NO><REV_AT_EPOCH>14630</REV_AT_EPOCH><BSTAR>.40301E-2</BSTAR><MEAN_MOTION_DOT>.1652E-4</MEAN_MOTION_DOT><MEAN_MOTION_DDOT>0</MEAN_MOTION_DDOT></tleParameters></data></segment></body></omm>
<omm id="CCSDS_OMM_VERS" version="2.0">
<header><CREATION_DATE/><ORIGINATOR/></header><body><segment><metadata><OBJECT_NAME>ONEWEB-0385</OBJECT_NAME><OBJECT_ID>2021-090AJ</OBJECT_ID><CENTER_NAME>EARTH</CENTER_NAME><REF_FRAME>TEME</REF_FRAME><TIME_SYSTEM>UTC</TIME_SYSTEM><MEAN_ELEMENT_THEORY>SGP4</MEAN_ELEMENT_THEORY></metadata><data><meanElements><EPOCH>2024-09-22T15:27:52.991712</EPOCH><MEAN_MOTION>13.20768635</MEAN_MOTION><ECCENTRICITY>.0001534</ECCENTRICITY><INCLINATION>87.9276</INCLINATION><RA_OF_ASC_NODE>40.2653</RA_OF_ASC_NODE><ARG_OF_PERICENTER>93.1271</ARG_OF_PERICENTER><MEAN_ANOMALY>267.0038</MEAN_ANOMALY></meanElements><tleParameters><EPHEMERIS_TYPE>0</EPHEMERIS_TYPE><CLASSIFICATION_TYPE>U</CLASSIFICATION_TYPE><NORAD_CAT_ID>49311</NORAD_CAT_ID><ELEMENT_SET_NO>999</ELEMENT_SET_NO><REV_AT_EPOCH>14630</REV_AT_EPOCH><BSTAR>.15402E-2</BSTAR><MEAN_MOTION_DOT>.639E-5</MEAN_MOTION_DOT><MEAN_MOTION_DDOT>0</MEAN_MOTION_DDOT></tleParameters></data></segment></body></omm>
<omm id="CCSDS_OMM_VERS" version="2.0">
<header><CREATION_DATE/><ORIGINATOR/></header><body><segment><metadata><OBJECT_NAME>ONEWEB-0386</OBJECT_NAME><OBJECT_ID>2021-090AK</OBJECT_ID><CENTER_NAME>EARTH</CENTER_NAME><REF_FRAME>TEME</REF_FRAME><TIME_SYSTEM>UTC</TIME_SYSTEM><MEAN_ELEMENT_THEORY>SGP4</MEAN_ELEMENT_THEORY></metadata><data><meanElements><EPOCH>2024-09-22T10:25:37.519392</EPOCH><MEAN_MOTION>13.20772355</MEAN_MOTION><ECCENTRICITY>.0001474</ECCENTRICITY><INCLINATION>87.9245</INCLINATION><RA_OF_ASC_NODE>40.2944</RA_OF_ASC_NODE><ARG_OF_PERICENTER>92.5169</ARG_OF_PERICENTER><MEAN_ANOMALY>267.6133</MEAN_ANOMALY></meanElements><tleParameters><EPHEMERIS_TYPE>0</EPHEMERIS_TYPE><CLASSIFICATION_TYPE>U</CLASSIFICATION_TYPE><NORAD_CAT_ID>49312</NORAD_CAT_ID><ELEMENT_SET_NO>999</ELEMENT_SET_NO><REV_AT_EPOCH>14629</REV_AT_EPOCH><BSTAR>.12042E-3</BSTAR><MEAN_MOTION_DOT>.62E-6</MEAN_MOTION_DOT><MEAN_MOTION_DDOT>0</MEAN_MOTION_DDOT></tleParameters></data></segment></body></omm>

</ndm>
